[
    {
        "Altitude(m)": 622200.0760857641,
        "Argument of Periapsis(deg)": 0.0,
        "Eccentricity": 0.0,
        "Inclination(deg)": 60.0,
        "Latitude(deg)": -52.16245234986317,
        "Longitude(deg)": 82.36079191658096,
        "Mean Anomaly(deg)": -65.45449999999998,
        "RAAN(deg)": 229.99999999999997,
        "Satellite Name": "Test1 1030",
        "Satellite Number": 1030,
        "Semi-Major Axis(m)": 6980739.136638005,
        "Time(s)": 0
    },
    {
        "Altitude(m)": 622058.2435908112,
        "Argument of Periapsis(deg)": 0.00010418945913296404,
        "Eccentricity": 0.0,
        "Inclination(deg)": 60.0,
        "Latitude(deg)": -51.79920159232899,
        "Longitude(deg)": 83.12884782942218,
        "Mean Anomaly(deg)": -64.83439385453813,
        "RAAN(deg)": 229.99957995086024,
        "Satellite Name": "Test1 1030",
        "Satellite Number": 1030,
        "Semi-Major Axis(m)": 6980739.136638005,
        "Time(s)": 10
    },
    {
        "Altitude(m)": 621913.6778194865,
        "Argument of Periapsis(deg)": 0.0002083789182659281,
        "Eccentricity": 0.0,
        "Inclination(deg)": 60.0,
        "Latitude(deg)": -51.43043927992485,
        "Longitude(deg)": 83.88392503206676,
        "Mean Anomaly(deg)": -64.21428770907637,
        "RAAN(deg)": 229.99915990172047,
        "Satellite Name": "Test1 1030",
        "Satellite Number": 1030,
        "Semi-Major Axis(m)": 6980739.136638005,
        "Time(s)": 20
    },
    {
        "Altitude(m)": 621766.4352112568,
        "Argument of Periapsis(deg)": 0.00031256837739889213,
        "Eccentricity": 0.0,
        "Inclination(deg)": 60.0,
        "Latitude(deg)": -51.056322532534516,
        "Longitude(deg)": 84.62621322128193,
        "Mean Anomaly(deg)": -63.59418156361448,
        "RAAN(deg)": 229.99873985258077,
        "Satellite Name": "Test1 1030",
        "Satellite Number": 1030,
        "Semi-Major Axis(m)": 6980739.136638005,
        "Time(s)": 30
    },
    {
        "Altitude(m)": 621616.5732219976,
        "Argument of Periapsis(deg)": 0.0004167578365318562,
        "Eccentricity": 0.0,
        "Inclination(deg)": 60.0,
        "Latitude(deg)": -50.67700477953001,
        "Longitude(deg)": 85.35590985919362,
        "Mean Anomaly(deg)": -62.974075418152715,
        "RAAN(deg)": 229.998319803441,
        "Satellite Name": "Test1 1030",
        "Satellite Number": 1030,
        "Semi-Major Axis(m)": 6980739.136638005,
        "Time(s)": 40
    },
    {
        "Altitude(m)": 621464.1502993861,
        "Argument of Periapsis(deg)": 0.0005209472956648203,
        "Eccentricity": 0.0,
        "Inclination(deg)": 60.0,
        "Latitude(deg)": -50.29263573276838,
        "Longitude(deg)": 86.07321812346603,
        "Mean Anomaly(deg)": -62.353969272690875,
        "RAAN(deg)": 229.99789975430127,
        "Satellite Name": "Test1 1030",
        "Satellite Number": 1030,
        "Semi-Major Axis(m)": 6980739.136638005,
        "Time(s)": 50
    },
    {
        "Altitude(m)": 621309.2258578368,
        "Argument of Periapsis(deg)": 0.0006251367547977843,
        "Eccentricity": 0.0,
        "Inclination(deg)": 60.0,
        "Latitude(deg)": -49.90336137414269,
        "Longitude(deg)": 86.77834643969598,
        "Mean Anomaly(deg)": -61.73386312722902,
        "RAAN(deg)": 229.9974797051615,
        "Satellite Name": "Test1 1030",
        "Satellite Number": 1030,
        "Semi-Major Axis(m)": 6980739.136638005,
        "Time(s)": 60
    },
    {
        "Altitude(m)": 621151.8602530431,
        "Argument of Periapsis(deg)": 0.0007293262139307483,
        "Eccentricity": 0.0,
        "Inclination(deg)": 60.0,
        "Latitude(deg)": -49.50932395628403,
        "Longitude(deg)": 87.47150808174851,
        "Mean Anomaly(deg)": -61.11375698176721,
        "RAAN(deg)": 229.9970596560218,
        "Satellite Name": "Test1 1030",
        "Satellite Number": 1030,
        "Semi-Major Axis(m)": 6980739.136638005,
        "Time(s)": 70
    },
    {
        "Altitude(m)": 620992.1147560525,
        "Argument of Periapsis(deg)": 0.0008335156730637124,
        "Eccentricity": 0.0,
        "Inclination(deg)": 60.0,
        "Latitude(deg)": -49.11066201508256,
        "Longitude(deg)": 88.15291932534099,
        "Mean Anomaly(deg)": -60.493650836305356,
        "RAAN(deg)": 229.99663960688204,
        "Satellite Name": "Test1 1030",
        "Satellite Number": 1030,
        "Semi-Major Axis(m)": 6980739.136638005,
        "Time(s)": 80
    },
    {
        "Altitude(m)": 620830.051526961,
        "Argument of Periapsis(deg)": 0.0009377051321966765,
        "Eccentricity": 0.0,
        "Inclination(deg)": 60.0,
        "Latitude(deg)": -48.707510392767325,
        "Longitude(deg)": 88.82279917845905,
        "Mean Anomaly(deg)": -59.87354469084352,
        "RAAN(deg)": 229.9962195577423,
        "Satellite Name": "Test1 1030",
        "Satellite Number": 1030,
        "Semi-Major Axis(m)": 6980739.136638005,
        "Time(s)": 90
    },
    {
        "Altitude(m)": 620665.7335881947,
        "Argument of Periapsis(deg)": 0.0010418945913296407,
        "Eccentricity": 0.0,
        "Inclination(deg)": 60.0,
        "Latitude(deg)": -48.300000270361224,
        "Longitude(deg)": 89.48136917331776,
        "Mean Anomaly(deg)": -59.253438545381655,
        "RAAN(deg)": 229.99579950860254,
        "Satellite Name": "Test1 1030",
        "Satellite Number": 1030,
        "Semi-Major Axis(m)": 6980739.136638005,
        "Time(s)": 100
    },
    {
        "Altitude(m)": 620499.2247973807,
        "Argument of Periapsis(deg)": 0.0011460840504626045,
        "Eccentricity": 0.0,
        "Inclination(deg)": 60.0,
        "Latitude(deg)": -47.888259208404925,
        "Longitude(deg)": 90.12885170438108,
        "Mean Anomaly(deg)": -58.63333239991985,
        "RAAN(deg)": 229.99537945946284,
        "Satellite Name": "Test1 1030",
        "Satellite Number": 1030,
        "Semi-Major Axis(m)": 6980739.136638005,
        "Time(s)": 110
    },
    {
        "Altitude(m)": 620330.5898198563,
        "Argument of Periapsis(deg)": 0.0012502735095955685,
        "Eccentricity": 0.0,
        "Inclination(deg)": 60.0,
        "Latitude(deg)": -47.4724111949173,
        "Longitude(deg)": 90.76546993542412,
        "Mean Anomaly(deg)": -58.013226254458,
        "RAAN(deg)": 229.99495941032308,
        "Satellite Name": "Test1 1030",
        "Satellite Number": 1030,
        "Semi-Major Axis(m)": 6980739.136638005,
        "Time(s)": 120
    },
    {
        "Altitude(m)": 620159.8941008081,
        "Argument of Periapsis(deg)": 0.0013544629687285324,
        "Eccentricity": 0.0,
        "Inclination(deg)": 60.0,
        "Latitude(deg)": -47.052576699639125,
        "Longitude(deg)": 91.39144775992061,
        "Mean Anomaly(deg)": -57.39312010899614,
        "RAAN(deg)": 229.99453936118334,
        "Satellite Name": "Test1 1030",
        "Satellite Number": 1030,
        "Semi-Major Axis(m)": 6980739.136638005,
        "Time(s)": 130
    },
    {
        "Altitude(m)": 619987.2038370427,
        "Argument of Periapsis(deg)": 0.0014586524278614966,
        "Eccentricity": 0.0,
        "Inclination(deg)": 60.0,
        "Latitude(deg)": -46.62887273367614,
        "Longitude(deg)": 92.00700829898946,
        "Mean Anomaly(deg)": -56.7730139635343,
        "RAAN(deg)": 229.99411931204358,
        "Satellite Name": "Test1 1030",
        "Satellite Number": 1030,
        "Semi-Major Axis(m)": 6980739.136638005,
        "Time(s)": 140
    },
    {
        "Altitude(m)": 619812.5859484152,
        "Argument of Periapsis(deg)": 0.0015628418869944607,
        "Eccentricity": 0.0,
        "Inclination(deg)": 60.0,
        "Latitude(deg)": -46.201412913732284,
        "Longitude(deg)": 92.61237395973276,
        "Mean Anomaly(deg)": -56.15290781807249,
        "RAAN(deg)": 229.99369926290387,
        "Satellite Name": "Test1 1030",
        "Satellite Number": 1030,
        "Semi-Major Axis(m)": 6980739.136638005,
        "Time(s)": 150
    },
    {
        "Altitude(m)": 619636.1080489131,
        "Argument of Periapsis(deg)": 0.0016670313461274247,
        "Eccentricity": 0.0,
        "Inclination(deg)": 60.0,
        "Latitude(deg)": -45.77030753018978,
        "Longitude(deg)": 93.20776653820644,
        "Mean Anomaly(deg)": -55.53280167261064,
        "RAAN(deg)": 229.99327921376414,
        "Satellite Name": "Test1 1030",
        "Satellite Number": 1030,
        "Semi-Major Axis(m)": 6980739.136638005,
        "Time(s)": 160
    },
    {
        "Altitude(m)": 619457.8384174408,
        "Argument of Periapsis(deg)": 0.0017712208052603888,
        "Eccentricity": 0.0,
        "Inclination(deg)": 60.0,
        "Latitude(deg)": -45.33566361836074,
        "Longitude(deg)": 93.79340585130765,
        "Mean Anomaly(deg)": -54.91269552714889,
        "RAAN(deg)": 229.99285916462438,
        "Satellite Name": "Test1 1030",
        "Satellite Number": 1030,
        "Semi-Major Axis(m)": 6980739.136638005,
        "Time(s)": 170
    },
    {
        "Altitude(m)": 619277.8459682454,
        "Argument of Periapsis(deg)": 0.001875410264393353,
        "Eccentricity": 0.0,
        "Inclination(deg)": 60.0,
        "Latitude(deg)": -44.89758503229287,
        "Longitude(deg)": 94.36950992054084,
        "Mean Anomaly(deg)": -54.29258938168704,
        "RAAN(deg)": 229.99243911548461,
        "Satellite Name": "Test1 1030",
        "Satellite Number": 1030,
        "Semi-Major Axis(m)": 6980739.136638005,
        "Time(s)": 180
    },
    {
        "Altitude(m)": 619096.2002210969,
        "Argument of Periapsis(deg)": 0.0019795997235263173,
        "Eccentricity": 0.0,
        "Inclination(deg)": 60.0,
        "Latitude(deg)": -44.4561725205755,
        "Longitude(deg)": 94.93629519209263,
        "Mean Anomaly(deg)": -53.67248323622523,
        "RAAN(deg)": 229.9920190663449,
        "Satellite Name": "Test1 1030",
        "Satellite Number": 1030,
        "Semi-Major Axis(m)": 6980739.136638005,
        "Time(s)": 190
    }
]